Domain,Location on Site,Tech Spend USD,Company,Vertical,Quantcast,Alexa,Majestic,Umbrella,Telephones,Emails,Twitter,Facebook,LinkedIn,Google,Pinterest,GitHub,Instagram,Vk,Vimeo,Youtube,People,City,State,Zip,Country,First Detected,Last Found,First Indexed,Last Indexed,Exclusion,GDPR
"1startside.com","1startside.com","$0","","Sports","Outside Top 1m","Outside Top 1m","Outside Top 1m","Outside Top 1m","ph:","kontakt@1startside.com","","","","","","","","","","","","","","","","2013-11-12","2018-08-05","2011-01-03","2018-08-05","-","Non-EU"
"badgirlns.tk","badgirlns.tk","$0","","","Outside Top 1m","Outside Top 1m","Outside Top 1m","Outside Top 1m","","","","","","","","","","","","","","","","","","2018-06-19","2018-08-03","2018-05-02","2018-08-03","-","Non-EU"
"barneuniverset.no","barneuniverset.no","$10","","","Outside Top 1m","Outside Top 1m","Outside Top 1m","Outside Top 1m","","","","","","","","","","","","","","","","","","2013-11-12","2018-08-03","2013-09-26","2018-08-03","-","Non-EU"
"barnibyen.no","barnibyen.no","$250","","","Outside Top 1m","Outside Top 1m","Outside Top 1m","Outside Top 1m","ph:","","https://twitter.com/barnibyen","https://facebook.com/barnibyen","","","","","https://instagram.com/barnibyen","","","","","","","","","2013-11-12","2018-08-21","2013-09-15","2018-08-21","-","Non-EU"
"batimes.com","batimes.com","$100","","Business And Industrial","Outside Top 1m","548732","302212","238733","ph:+1-866-782-8231","","https://twitter.com/batimes","","","","","","","","","","","Portland","ME","04112","US","2013-10-24","2018-08-21","2011-11-06","2018-08-21","-","Non-EU"
"beseitigeans.ga","beseitigeans.ga","$250","","","Outside Top 1m","Outside Top 1m","Outside Top 1m","Outside Top 1m","","","","","","","","","","","","","","","","","","2018-07-02","2018-08-03","2018-07-02","2018-08-03","-","Non-EU"
"bitkburgs.tk","bitkburgs.tk","$100","","","Outside Top 1m","Outside Top 1m","Outside Top 1m","Outside Top 1m","","","","","","","","","","","","","","","","","","2018-05-02","2018-08-03","2018-05-02","2018-08-13","-","Non-EU"
"bloomberght.com","bloomberght.com","$5000","","Technology And Computing","Outside Top 1m","5763","130727","26363","ph:","","https://twitter.com/bloomberght","https://facebook.com/bloomberght","","https://google.com/+bloomberght","","","","","","https://youtube.com/user/bloomberght","","","","","","2013-10-24","2018-08-20","2011-11-06","2018-08-21","-","Non-EU"
"bloomberghtradyo.com","bloomberghtradyo.com","$0","","","Outside Top 1m","Outside Top 1m","Outside Top 1m","Outside Top 1m","","","","","","","","","","","","","","","","","","2015-11-10","2018-08-21","2013-09-26","2018-08-21","-","Non-EU"
"bluewaterreporting.com","bluewaterreporting.com","$500","","Art And Entertainment","Outside Top 1m","Outside Top 1m","Outside Top 1m","Outside Top 1m","ph:","","","","","","","","","","","","Ben Meyer - Other - noemail; Edward Howard - Other - noemail; Steve Wynn - Manager - noemail","","","","","2013-11-12","2018-08-03","2013-03-14","2018-08-03","-","Non-EU"
"boligmani.no","boligmani.no","$1000","Paratome As","","Outside Top 1m","507261","Outside Top 1m","Outside Top 1m","ph:","aleks@paratome.com;post@boligmani.no","https://twitter.com/boligmani","https://facebook.com/boligmani","","","","","https://instagram.com/boligmani","","","","","Oslo","","NO-0652","NO","2014-02-13","2018-08-20","2013-10-22","2018-08-20","-","Non-EU"
"buildingyourfamily.com","buildingyourfamily.com","$5000","New Hope Media LLC","Law  Govt And Politics","104643","Outside Top 1m","Outside Top 1m","Outside Top 1m","ph:+1-646-366-0830","editor@buildingyourfamily.com;listing@buildingyourfamily.com;advertising@buildingyourfamily.com;webmaster@buildingyourfamily.com","","https://facebook.com/buildingyourfamily","","","https://pinterest.com/buildyourfamily","","","","","","","New York City","NY","10018","US","2013-11-12","2018-08-08","2013-09-15","2018-08-08","-","Non-EU"
"businessht.com.tr","businessht.com.tr","$5000","","Business And Industrial","Outside Top 1m","153028","556211","61998","ph:","","https://twitter.com/businesshtcom","https://facebook.com/businesshtcom","https://linkedin.com/company/businessht","https://google.com/+businessht","","","","","","","","","","","","2015-03-18","2018-07-28","2015-03-11","2018-08-20","-","Non-EU"
"byguiden.no","byguiden.no","$100","","Business And Industrial","Outside Top 1m","Outside Top 1m","Outside Top 1m","Outside Top 1m","ph:","","","","","","","","","","","","","","","","","2015-11-10","2018-08-03","2015-11-10","2018-08-03","-","Non-EU"
"bysiden.no","bysiden.no","$100","","Business And Industrial","Outside Top 1m","925417","Outside Top 1m","Outside Top 1m","ph:","raymond@bysiden.no;henrik@bysiden.no","","","","","","","","","","","","","","","","2013-11-12","2018-08-03","2012-11-01","2018-08-03","-","Non-EU"
"canadaboatshows.com","canadaboatshows.com","$250","CanadaBoatShows.com Lifestyle Integrated Inc","Art And Entertainment","Outside Top 1m","Outside Top 1m","Outside Top 1m","Outside Top 1m","ph:","","","","","","","","","","","","","","","","","2013-11-12","2018-08-20","2012-04-05","2018-08-20","-","Non-EU"
"cellproperty.com","cellproperty.com","$0","","Business And Industrial","Outside Top 1m","Outside Top 1m","Outside Top 1m","Outside Top 1m","ph:","","","","","","","","","","","","","","","","","2015-01-30","2018-08-03","2013-03-28","2018-08-03","-","Non-EU"
"circuitinsight.com","circuitinsight.com","$500","Circuitnet LLC","Business And Industrial","Outside Top 1m","Outside Top 1m","Outside Top 1m","Outside Top 1m","ph:+1-843-682-4755;+1-978-363-2176","jferry@circuitinsight.com;kcavallaro@circuitinsight.com","","","","","","","","","","","Ken Cavallaro - Manager - noemail","Haverhill","MA","01835","US","2016-03-20","2018-08-20","2015-01-05","2018-08-20","-","Non-EU"
"circuitmedic.com","circuitmedic.com","$2000","","Art And Entertainment","Outside Top 1m","657585","Outside Top 1m","Outside Top 1m","ph:+1-978-372-5700;+1-978-374-5000;+1-978-373-1600","","","","","","","","","","","","","Haverhill","MA","01835","US","2013-10-24","2018-08-04","2011-04-03","2018-08-04","-","Non-EU"
"circuitnet.com","circuitnet.com","$500","Circuitnet LLC ","Business And Industrial","108556","902139","Outside Top 1m","238864","ph:+1-843-682-4755;+1-978-363-2176","jferry@circuitnet.com;kcavallaro@circuitnet.com","","","","","","","","","","","Ken Cavallaro - Manager - kcavallaro@circuitnet.com","Haverhill","MA","01835","US","2013-10-24","2018-08-20","2011-01-03","2018-08-20","-","Non-EU"
"circuitrework.com","circuitrework.com","$500","","Art And Entertainment","Outside Top 1m","Outside Top 1m","Outside Top 1m","Outside Top 1m","ph:+1-978-374-5000","","","","","","","","","","","","Jeff Ferry - President - noemail","Haverhill","MA","01835","US","2013-10-24","2018-08-20","2011-01-03","2018-08-20","-","Non-EU"
"climanoticias.com","climanoticias.com","$5000","","Home And Garden","Outside Top 1m","Outside Top 1m","Outside Top 1m","Outside Top 1m","ph:+34-912-972000;+34-902-999829","info@climanoticias.com","https://twitter.com/climanoticias","https://facebook.com/climanoticias","https://linkedin.com/company/climanoticias","","","","","","","","","Madrid","M","28022","ES","2014-01-11","2018-08-04","2014-01-11","2018-08-04","-","Spain"
"cougargeneva.com","cougargeneva.com","$50","","","Outside Top 1m","Outside Top 1m","Outside Top 1m","Outside Top 1m","","","","","","","","","","","","","","","","","","2014-01-11","2018-08-03","2014-01-11","2018-08-14","-","Non-EU"
"cushcity.com","cushcity.com","$50","Cushcity.com","","259693","Outside Top 1m","Outside Top 1m","Outside Top 1m","ph:+1-281-444-4265;+1-800-340-5454","custsvc@cushcity.com;grichardson@cushcity.com","","","","","","","","","","https://youtube.com/user/cushcity","","Houston","TX","77014","US","2013-11-12","2018-08-08","2012-04-05","2018-08-08","-","Non-EU"
"cyberprop.com","cyberprop.com","$0","","Real Estate","Outside Top 1m","Outside Top 1m","572100","Outside Top 1m","ph:","","","https://facebook.com/cyberprop","","","","","","","","","","","","","","2015-01-30","2018-08-07","2011-09-04","2018-08-20","-","Non-EU"
"nationalblackbookfestival.com","nationalblackbookfestival.com","$50","","Art And Entertainment","Outside Top 1m","Outside Top 1m","Outside Top 1m","Outside Top 1m","ph:+1-281-583-9534;+1-800-340-5454","bookclub@nationalblackbookfestival.com;info@nationalblackbookfestival.com","","","","","","","","","","","","Houston","TX","77014","US","2014-07-17","2018-08-03","2012-04-05","2018-08-03","-","Non-EU"
"norskgatemote.no","norskgatemote.no","$0","","","Outside Top 1m","Outside Top 1m","Outside Top 1m","Outside Top 1m","","","","","","","","","","","","","","","","","","2014-01-11","2018-08-03","2014-01-11","2018-08-03","-","Non-EU"
"nortravecls.gq","nortravecls.gq","$100","","","Outside Top 1m","Outside Top 1m","Outside Top 1m","Outside Top 1m","","","","","","","","","","","","","","","","","","2018-07-02","2018-08-03","2018-07-02","2018-08-03","-","Non-EU"
"nudeafrica.biz","nudeafrica.biz","$0","","Adult","Outside Top 1m","Outside Top 1m","Outside Top 1m","Outside Top 1m","ph:","","","","","","","","","","","","","Fresno","CA","93794","US","2013-11-12","2018-08-03","2013-02-28","2018-08-03","-","Non-EU"
"nudeafrica.bz","nudeafrica.bz","$0","","Adult","Outside Top 1m","Outside Top 1m","Outside Top 1m","Outside Top 1m","ph:","","","","","","","","","","","","","Fresno","CA","93794","US","2014-01-11","2018-08-03","2014-01-11","2018-08-03","-","Non-EU"
"nudeafrica.com","nudeafrica.com","$0","tarrob web services inc","Adult","Outside Top 1m","483951","Outside Top 1m","Outside Top 1m","ph:","","","","","","","","","","","","","","","","","2018-02-09","2018-08-20","2011-11-06","2018-08-20","-","Non-EU"
"nudeafrica.info","nudeafrica.info","$0","","Adult","Outside Top 1m","Outside Top 1m","Outside Top 1m","Outside Top 1m","ph:","","","","","","","","","","","","","Fresno","CA","93794","US","2013-11-12","2018-08-03","2013-02-28","2018-08-03","-","Non-EU"
"nudeafrica.tv","nudeafrica.tv","$0","","Adult","Outside Top 1m","Outside Top 1m","Outside Top 1m","Outside Top 1m","ph:","","","","","","","","","","","","","Fresno","CA","93794","US","2013-11-12","2018-08-03","2013-09-15","2018-08-03","-","Non-EU"
"nudeafrica.us","nudeafrica.us","$0","","Adult","Outside Top 1m","Outside Top 1m","Outside Top 1m","Outside Top 1m","ph:","","","","","","","","","","","","","Fresno","CA","93794","US","2013-11-12","2018-08-03","2013-09-15","2018-08-03","-","Non-EU"
"nudeaustralia.com","nudeaustralia.com","$0","","Adult","Outside Top 1m","Outside Top 1m","Outside Top 1m","Outside Top 1m","ph:","","","","","","","","","","","","","","","","","2013-11-12","2018-08-03","2013-02-28","2018-08-03","-","Non-EU"
"nudechina.com","nudechina.com","$0","","Adult","Outside Top 1m","Outside Top 1m","Outside Top 1m","Outside Top 1m","ph:+1-715-831-1007","","","","","","","","","","","","","","","","","2013-11-12","2018-08-03","2013-02-28","2018-08-03","-","Non-EU"
"nudeeurope.com","nudeeurope.com","$0","Star Media Group","Adult","Outside Top 1m","Outside Top 1m","Outside Top 1m","Outside Top 1m","ph:","","","","","","","","","","","","","","","","","2013-11-12","2018-08-03","2013-02-28","2018-08-03","-","Non-EU"
"nudeindia.net","nudeindia.net","$0","tarrob web services inc","Adult","Outside Top 1m","Outside Top 1m","Outside Top 1m","Outside Top 1m","ph:","","","","","","","","","","","","","","","","","2013-11-12","2018-08-03","2013-02-28","2018-08-03","-","Non-EU"
"nuderussia.com","nuderussia.com","$0","","Adult","Outside Top 1m","Outside Top 1m","Outside Top 1m","Outside Top 1m","ph:","","","","","","","","","","","","","","","","","2014-01-11","2018-08-03","2014-01-11","2018-08-03","-","Non-EU"
"nudesouthamerica.com","nudesouthamerica.com","$0","","Adult","Outside Top 1m","Outside Top 1m","Outside Top 1m","Outside Top 1m","ph:","","","","","","","","","","","","","","","","","2014-01-11","2018-08-03","2014-01-11","2018-08-03","-","Non-EU"
"nudeunitedstates.com","nudeunitedstates.com","$0","","Adult","Outside Top 1m","Outside Top 1m","Outside Top 1m","Outside Top 1m","ph:","","","","","","","","","","","","","","","","","2014-01-11","2018-08-03","2014-01-11","2018-08-03","-","Non-EU"
"oilandgasnewsonline.com","oilandgasnewsonline.com","$100","Al Hilal Group","Business And Industrial","Outside Top 1m","Outside Top 1m","Outside Top 1m","Outside Top 1m","ph:","","","","","","","","","","","","","","","","","2014-08-13","2018-08-23","2013-09-15","2018-08-23","-","Non-EU"
"oilandgasnewsworldwide.com","oilandgasnewsworldwide.com","$100","Al Hilal Group","Business And Industrial","Outside Top 1m","Outside Top 1m","Outside Top 1m","Outside Top 1m","ph:","","","","","","","","","","","","","","","","","2014-07-23","2018-08-07","2011-01-03","2018-08-20","-","Non-EU"
"oleorevista.com","oleorevista.com","$5000","","Art And Entertainment","Outside Top 1m","Outside Top 1m","Outside Top 1m","Outside Top 1m","ph:+34-976-466020;+34-902-999829","","https://twitter.com/oleorevista","https://facebook.com/oleorevista","","","","","","","","","","Madrid","M","28022","ES","2014-01-11","2018-07-26","2014-01-11","2018-07-28","-","Spain"
"oncologyex.com","oncologyex.com","$250","","Science","Outside Top 1m","Outside Top 1m","Outside Top 1m","Outside Top 1m","ph:+1-514-397-0228","editors@oncologyex.com;circulation@oncologyex.com","","","","","","","","","","","","Old Montreal","QC","H2Y","CA","2013-11-12","2018-08-03","2011-09-04","2018-08-03","-","Non-EU"
"oneiros.no","trianytt.test.oneiros.no","$100","","Technology And Computing","Outside Top 1m","Outside Top 1m","Outside Top 1m","Outside Top 1m","ph:","post@oneiros.no","","","","","","","","","","","","","","","","2018-07-02","2018-08-05","2014-02-23","2018-08-05","-","Non-EU"
"tartalk.com","tartalk.com","$0","","Sports","Outside Top 1m","Outside Top 1m","Outside Top 1m","Outside Top 1m","ph:","","","","","","","","","","","","","","","","","2016-06-29","2018-08-03","2016-03-20","2018-08-03","-","Non-EU"
"teamsrtatss.ga","teamsrtatss.ga","$0","","","Outside Top 1m","Outside Top 1m","Outside Top 1m","Outside Top 1m","","","","","","","","","","","","","","","","","","2018-05-02","2018-08-03","2018-05-02","2018-08-03","-","Non-EU"
"teamsrtatss.gq","teamsrtatss.gq","$0","","","Outside Top 1m","Outside Top 1m","Outside Top 1m","Outside Top 1m","","","","","","","","","","","","","","","","","","2018-05-02","2018-08-03","2018-05-02","2018-08-03","-","Non-EU"
"tecnipublicaciones.com","tecnipublicaciones.com","$5000","Grupo Tecnipublicaciones  S.L.","Technology And Computing","Outside Top 1m","Outside Top 1m","886431","Outside Top 1m","ph:+34-932-431040;+34-912-972000;+34-902-999829","","https://twitter.com/tecni","","","","","","","","","","","Madrid","M","28022","ES","2013-11-07","2018-08-03","2011-11-06","2018-08-03","-","Spain"
"thegulfonline.com","thegulfonline.com","$50","","Business And Industrial","Outside Top 1m","Outside Top 1m","Outside Top 1m","Outside Top 1m","ph:+44-208-9433630","editorial@thegulfonline.com","","","","","","","","","","","","Teddington","LONDON","TW11","GB","2013-11-12","2018-08-03","2013-02-28","2018-08-03","-","United Kingdom"
"thumperscorner.com","thumperscorner.com","$50","","Art And Entertainment","Outside Top 1m","Outside Top 1m","Outside Top 1m","Outside Top 1m","ph:+1-347-692-2522;+1-866-603-8394","","","","","","","","","","","","Troy Johnson - Founder - noemail","New York City","NY","10029","US","2013-11-12","2018-08-21","2013-02-28","2018-08-21","-","Non-EU"
"tiggners.tk","tiggners.tk","$50","","","Outside Top 1m","Outside Top 1m","Outside Top 1m","Outside Top 1m","","","","","","","","","","","","","","","","","","2018-05-02","2018-08-09","2018-05-02","2018-08-09","-","Non-EU"
"tradearabia.com","tradearabia.com","$100","","Business And Industrial","Outside Top 1m","250133","17948","216008","ph:","","https://twitter.com/tradearabia","https://facebook.com/tradearabia","","","","","","","","","N/A - Csuite - noemail","Teddington","LONDON","TW11","GB","2013-11-12","2018-08-20","2011-01-03","2018-08-20","-","United Kingdom"
"travelresearchonline.com","travelresearchonline.com","$5000","","Travel","172999","596335","Outside Top 1m","141629","ph:+1-904-371-3179;+1-850-386-3300","support@travelresearchonline.com","","https://facebook.com/travelresearchonline","","","","","","","","","Stacy Small - President - stacy@travelresearchonline.com; Jim Tedesco - President - jim@travelresearchonline.com","Tallahassee","FL","32309","US","2013-10-24","2018-08-20","2011-01-03","2018-08-20","-","Non-EU"
"travlang.com","travlang.com","$5000","Travlang Inc.","Education","21488","Outside Top 1m","12567","Outside Top 1m","ph:+61-72-0040715","webmaster@travlang.com","","","","","","","","","","","","","","","","2013-10-24","2018-08-08","2011-01-31","2018-08-20","-","Non-EU"
"trianytt.no","trianytt.no","$0","","Art And Entertainment","Outside Top 1m","Outside Top 1m","Outside Top 1m","Outside Top 1m","ph:","","","https://facebook.com/trianytt.no","","","","","https://instagram.com/trianytt.no","","","","","","","","","2016-12-27","2018-08-05","2016-12-24","2018-08-05","-","Non-EU"
"truckdriver.com","truckdriver.com","$250","","Automotive And Vehicles","90797","Outside Top 1m","Outside Top 1m","Outside Top 1m","ph:+1-763-444-8998;+1-877-462-3528;+1-800-334-5142;+1-877-791-9458","debbie@truckdriver.com;pete@truckdriver.com;jim@truckdriver.com;vona@truckdriver.com;brian@truckdriver.com","https://twitter.com/truckdriver_com","https://facebook.com/truckdriverjobs","","","","","","","","","Aurora Parts - Account - noemail; Pete Palmer - Sales - noemail; Jim Condon - Sales - noemail","Sioux Falls","SD","57104","US","2013-10-24","2018-08-20","2011-01-03","2018-08-20","-","Non-EU"
"ttnonline.com","ttnonline.com","$50","","","Outside Top 1m","Outside Top 1m","Outside Top 1m","Outside Top 1m","ph:+44-208-9433630;+1-208-943-3630","","","","","","","","","","","","","Teddington","LONDON","TW11","GB","2013-11-12","2018-08-21","2013-02-28","2018-08-21","-","United Kingdom"
"ttnworldwide.com","ttnworldwide.com","$50","Al Hilal Group","","Outside Top 1m","Outside Top 1m","Outside Top 1m","Outside Top 1m","ph:+1-208-943-3630","","https://twitter.com/ttnworldwide","https://facebook.com/ttnworldwide","","","","","","","","https://youtube.com/user/ttnworldwide1","","","","","","2013-10-24","2018-08-07","2012-01-06","2018-08-07","-","Non-EU"
"turbonines.com","turbonines.com","$5000","Vortex Media Group","Art And Entertainment","Outside Top 1m","Outside Top 1m","Outside Top 1m","Outside Top 1m","ph:","","","","","","","","","","","","","","","","","2015-10-21","2018-08-27","2011-11-06","2018-08-27","-","Non-EU"
"imaging-resource.com","imaging-resource.com","$500","","Technology And Computing","7583","32202","6766","81743","ph:","detchells@imaging-resource.com;mtomkins@imaging-resource.com;jgray@imaging-resource.com;shawn@imaging-resource.com;data@imaging-resource.com;web@imaging-resource.com;hotnews@imaging-resource.com;ads@imaging-resource.com;otnews@imaging-resource.com;tnews@imaging-resource.com;ditor@imaging-resource.com;photos@imaging-resource.com;mkins@imaging-resource.com;links@imaging-resource.com;itor@imaging-resource.com;nkelsh@imaging-resource.com;photo@imaging-resource.com;gannon@imaging-resource.com;ns@imaging-resource.com;ins@imaging-resource.com","","https://facebook.com/imagingresource","","https://google.com/+imagingresource","","","","","","","David Etchells - Whois - detchells@imaging-resource.com; Arthur Etchells - Director - aetchells@imaging-resource.com","Woodstock","GA","30188","US","2013-10-24","2018-08-20","2011-01-03","2018-08-20","-","Non-EU"
"indiansex4u.co.uk","indiansex4u.co.uk","$0","tarrob web services inc","Adult","Outside Top 1m","Outside Top 1m","Outside Top 1m","Outside Top 1m","ph:","","","","","","","","","","","","","","","","","2013-11-12","2018-08-03","2013-02-28","2018-08-03","-","United Kingdom"
"indiansex4u.com","indiansex4u.com","$0","tarrob web services inc","Adult","Outside Top 1m","308758","Outside Top 1m","Outside Top 1m","ph:","","","","","","","","","","","","","","","","","2018-02-09","2018-08-07","2011-11-06","2018-08-20","-","Non-EU"
"interracialsex4u.com","interracialsex4u.com","$0","","Adult","Outside Top 1m","Outside Top 1m","Outside Top 1m","Outside Top 1m","ph:","","","","","","","","","","","","","Bainbridge Island","WA","98110","","2013-11-12","2018-08-03","2013-02-28","2018-08-03","-","Non-EU"
"investorvillage.com","investorvillage.com","$50","","Technology And Computing","83661","133883","139583","112963","ph:","admin@investorvillage.com;support@investorvillage.com","https://twitter.com/investorvillage","","","","","","","","","","","Marrero","LA","70073","US","2013-10-24","2018-08-20","2011-01-03","2018-08-22","-","Non-EU"
"iposenaked.com","iposenaked.com","$0","Contactmusic.com Ltd","Adult","Outside Top 1m","Outside Top 1m","Outside Top 1m","Outside Top 1m","ph:+1-859-219-9065","","","","","","","","","","","","","Lexington","KY","40509","US","2013-11-12","2018-08-03","2013-02-28","2018-08-03","-","Non-EU"
"jenteporten.no","jenteporten.no","$0","","Shopping","Outside Top 1m","Outside Top 1m","238487","Outside Top 1m","ph:","lotte@jenteporten.no","https://twitter.com/jenteporten","","","","","","","","","","","","","","","2013-11-12","2018-08-26","2011-11-06","2018-08-26","-","Non-EU"
"jobs4bahrainis.com","jobs4bahrainis.com","$100","","Technology And Computing","Outside Top 1m","Outside Top 1m","Outside Top 1m","Outside Top 1m","ph:","","https://twitter.com/jobs4bahrainis","","","","","","https://instagram.com/jobs4bahrainis","","","","","","","","","2013-10-24","2018-08-03","2013-02-19","2018-08-03","-","Non-EU"
"johnsteffensen.no","johnsteffensen.no","$250","","","Outside Top 1m","Outside Top 1m","Outside Top 1m","Outside Top 1m","","","","","","","","","","","","","","","","","","2014-12-08","2018-08-20","2014-01-11","2018-08-20","-","Non-EU"
"jsfcentral.com","jsfcentral.com","$100","Virtua Inc","Technology And Computing","Outside Top 1m","Outside Top 1m","70112","Outside Top 1m","ph:","submissions@jsfcentral.com;webmaster@jsfcentral.com;info@jsfcentral.com","","","","","","","","","","","","","","","","2013-11-12","2018-08-03","2012-01-06","2018-08-03","-","Non-EU"
"sambples.tk","sambples.tk","$100","","","Outside Top 1m","Outside Top 1m","Outside Top 1m","Outside Top 1m","","","","","","","","","","","","","","","","","","2018-05-02","2018-08-03","2018-05-02","2018-08-03","-","Non-EU"
"sexe-sex-porno.com","sexe-sex-porno.com","$50","","","Outside Top 1m","Outside Top 1m","Outside Top 1m","Outside Top 1m","","","","","","","","","","","","","","","","","","2014-01-11","2018-08-03","2014-01-11","2018-08-25","-","Non-EU"
"showmax.com.tr","showmax.com.tr","$0","","","Outside Top 1m","728726","Outside Top 1m","66412","ph:","","https://twitter.com/showmaxshow","https://facebook.com/showmaxshow","","","","","https://instagram.com/showmaxtv","","","","","","","","","2014-07-07","2018-08-07","2014-01-11","2018-08-20","-","Non-EU"
"showturk.com.tr","showturk.com.tr","$0","","Art And Entertainment","Outside Top 1m","321028","Outside Top 1m","64454","ph:","","https://twitter.com/showturkshow","https://facebook.com/showturkshow","","","","","https://instagram.com/showturkshow","","","","","","","","","2016-11-09","2018-08-20","2016-03-20","2018-08-20","-","Non-EU"
"showtv.com.tr","showtv.com.tr","$2000","","Technology And Computing","Outside Top 1m","18579","102445","45840","ph:","","https://twitter.com/showtv","https://facebook.com/showtv","","https://google.com/+showtv","","","https://instagram.com/showtv_","","","","","","","","","2014-05-30","2018-08-25","2013-12-15","2018-08-25","-","Non-EU"
"sicalzs.gq","sicalzs.gq","$100","","","Outside Top 1m","Outside Top 1m","Outside Top 1m","Outside Top 1m","","","","","","","","","","","","","","","","","","2018-05-02","2018-08-25","2018-05-02","2018-08-25","-","Non-EU"
"sigghisoaras.ga","sigghisoaras.ga","$100","","","Outside Top 1m","Outside Top 1m","Outside Top 1m","Outside Top 1m","","","","","","","","","","","","","","","","","","2018-05-02","2018-08-03","2018-05-02","2018-08-03","-","Non-EU"
"skift-jobb.no","skift-jobb.no","$0","","","Outside Top 1m","Outside Top 1m","Outside Top 1m","Outside Top 1m","","","","","","","","","","","","","","","","","","2016-03-20","2018-08-03","2016-03-20","2018-08-03","-","Non-EU"
"slutwife4u.com","slutwife4u.com","$0","tarrob web services inc","Adult","Outside Top 1m","Outside Top 1m","Outside Top 1m","Outside Top 1m","ph:","","","","","","","","","","","","","","","","","2013-11-12","2018-08-03","2013-02-28","2018-08-03","-","Non-EU"
"smallboatsmonthly.com","smallboatsmonthly.com","$100","","Home And Garden","200082","Outside Top 1m","Outside Top 1m","Outside Top 1m","ph:","","","","","","","","","","","","","","","","","2015-06-20","2018-08-08","2014-09-17","2018-08-08","-","Non-EU"
"smallcapdirectory.com","smallcapdirectory.com","$500","IntegrityMessageBoards.com LLC","Finance","273019","Outside Top 1m","Outside Top 1m","Outside Top 1m","ph:+1-314-431-9442;+1-866-333-9244;+1-314-721-2595","","","","","","","","","","","","Mark Rupe - Analyst - noemail","Marrero","LA","70072","US","2013-10-24","2018-08-20","2012-07-05","2018-08-20","-","Non-EU"
"smarterhomeautomation.com","smarterhomeautomation.com","$250","","Technology And Computing","Outside Top 1m","Outside Top 1m","850101","Outside Top 1m","ph:+1-949-291-2867","reviewer@smarterhomeautomation.com","https://twitter.com/smarterhomeauto","https://facebook.com/smarterhomeauto","","","","","https://instagram.com/smarterhomeautomation","","","","","","","","","2015-11-10","2018-08-05","2015-11-10","2018-08-05","-","Non-EU"
"smsmousic.gq","smsmousic.gq","$50","","","Outside Top 1m","Outside Top 1m","Outside Top 1m","Outside Top 1m","","","","","","","","","","","","","","","","","","2017-11-19","2018-08-26","2017-11-19","2018-08-26","-","Non-EU"
"spillegratis.no","spillegratis.no","$10","","Sports","Outside Top 1m","Outside Top 1m","Outside Top 1m","Outside Top 1m","ph:","","","","","","","","","","","","","","","","","2013-11-12","2018-08-26","2013-09-15","2018-08-26","-","Non-EU"
"stonebloc.co.za","stonebloc.co.za/*","$50","","Shopping","Outside Top 1m","Outside Top 1m","Outside Top 1m","Outside Top 1m","ph:+61-72-2762136;+61-73-2229084","admin@stonebloc.co.za","","https://facebook.com/stoneblocproperties","","","","","","","","","","","","","","2018-08-26","2018-08-26","2016-06-29","2018-08-26","-","Non-EU"
"videofldixs.ga","videofldixs.ga","$100","","","Outside Top 1m","Outside Top 1m","Outside Top 1m","Outside Top 1m","","","","","","","","","","","","","","","","","","2018-06-18","2018-08-28","2018-05-31","2018-08-28","-","Non-EU"
"vixen.no","vixen.no","$1000","","Art And Entertainment","Outside Top 1m","Outside Top 1m","Outside Top 1m","Outside Top 1m","ph:","post@vixen.no","","","","","","","https://instagram.com/vixen_magazine","","","","","","","","","2013-11-12","2018-08-28","2012-09-06","2018-08-28","-","Non-EU"
"doctorsreview.com","doctorsreview.com","$250","","Travel","309939","658449","636024","Outside Top 1m","ph:+1-514-397-8833","editors@doctorsreview.com","https://twitter.com/doctorsreview","https://facebook.com/doctorsreview","","","","","","","","","","","","","","2013-10-24","2018-08-20","2011-01-03","2018-08-20","-","Non-EU"
"dynamixtechnology.com","dynamixtechnology.com","$50","Dynamix Technology Ltd","Business And Industrial","Outside Top 1m","857570","Outside Top 1m","Outside Top 1m","ph:+44-1608-730988;+44-1865-370380","enquiries@dynamixtechnology.com","","","","","","","","","","","","Kidlington","OXF","OX5","GB","2015-01-27","2018-08-03","2014-06-10","2018-08-03","-","United Kingdom"
"dyresiden.no","dyresiden.no","$0","","Law  Govt And Politics","Outside Top 1m","Outside Top 1m","Outside Top 1m","Outside Top 1m","ph:","","","","","","","","","","","","","","","","","2013-11-12","2018-08-07","2012-08-30","2018-08-07","-","Non-EU"
"haberturk.com","haberturk.com","$5000","","Technology And Computing","Outside Top 1m","1216","8483","17469","ph:","info@haberturk.com","https://twitter.com/haberturk","https://facebook.com/haberturk","https://linkedin.com/company/haberturk","https://google.com/+haberturk","https://pinterest.com/haberturk","","https://instagram.com/haberturk","","","https://youtube.com/user/hthayatcom","","Brockport","NY","14420","US","2013-10-24","2018-08-21","2011-01-03","2018-08-21","-","Non-EU"
"hcelmis.ga","hcelmis.ga","$10","","","Outside Top 1m","Outside Top 1m","Outside Top 1m","Outside Top 1m","","","","","","","","","","","","","","","","","","2018-05-02","2018-08-03","2018-05-02","2018-08-03","-","Non-EU"
"hiphopbookclub.com","hiphopbookclub.com","$50","","Art And Entertainment","Outside Top 1m","Outside Top 1m","Outside Top 1m","Outside Top 1m","ph:+61-4-46699721","","","","","","","","","","","","","","","","","2013-11-12","2018-08-21","2011-04-03","2018-08-21","-","Non-EU"
"hotblondewife.com","hotblondewife.com","$0","Associated Newspapers Ltd","Adult","Outside Top 1m","Outside Top 1m","Outside Top 1m","Outside Top 1m","ph:+1-780-222-0102","","","","","","","","","","","","","Beverly Hills","CA","90210","US","2013-11-12","2018-08-03","2011-01-03","2018-08-03","-","Non-EU"
"hundetreff.no","hundetreff.no","$0","","","Outside Top 1m","Outside Top 1m","Outside Top 1m","Outside Top 1m","","","","","","","","","","","","","","","","","","2017-05-31","2018-08-03","2017-05-31","2018-08-03","-","Non-EU"
"laestrella.com.pa","laestrella.com.pa","$1000","","Technology And Computing","192045","12939","36056","87651","ph:","","https://twitter.com/estrellaonline","https://facebook.com/estrellaonlinepma","","https://google.com/+laestrelladepanama","","","https://instagram.com/estrellaonline","","","","","","","","","2014-04-09","2018-08-20","2011-01-03","2018-08-20","-","Non-EU"
"largecapdirectory.com","largecapdirectory.com","$500","IntegrityMessageBoards.com LLC","","Outside Top 1m","Outside Top 1m","Outside Top 1m","Outside Top 1m","ph:+1-404-584-0108;+1-314-431-9442","","","","","","","","","","","","","Atlanta","GA","30312","US","2013-11-12","2018-08-07","2013-02-28","2018-08-07","-","Non-EU"
"ledacitys.cf","ledacitys.cf","$0","","","Outside Top 1m","Outside Top 1m","Outside Top 1m","Outside Top 1m","","","","","","","","","","","","","","","","","","2018-07-02","2018-08-03","2018-07-02","2018-08-03","-","Non-EU"
"lezzetli.com","lezzetli.com","$50","","","Outside Top 1m","Outside Top 1m","Outside Top 1m","Outside Top 1m","","ozerersan@gmail.com","https://twitter.com/lezzetlicom","https://facebook.com/lezzetlicom","","","https://pinterest.com/lezzetlicom","","","","","","","Istanbul","","34752","TR","2013-10-24","2018-08-21","2013-06-06","2018-08-21","-","Non-EU"
"lintkbacks.tk","lintkbacks.tk","$0","","","Outside Top 1m","Outside Top 1m","Outside Top 1m","Outside Top 1m","","","","","","","","","","","","","","","","","","2018-06-01","2018-08-03","2018-05-31","2018-08-03","-","Non-EU"
"logisticaprofesional.com","logisticaprofesional.com","$5000","","Travel","Outside Top 1m","Outside Top 1m","Outside Top 1m","Outside Top 1m","ph:+34-912-972000;+34-902-999829","info@logisticaprofesional.com","https://twitter.com/logisticaprof","https://facebook.com/logisticaprofesional","","","","","","","","","","Madrid","M","28022","ES","2013-12-15","2018-08-07","2012-12-06","2018-08-22","-","Spain"
"rbkweb.no","rbkweb.no","$50","","","Outside Top 1m","157979","Outside Top 1m","Outside Top 1m","ph:","","","","","","","","","","","","","","","","","2013-10-24","2018-08-07","2011-12-04","2018-08-20","-","Non-EU"
"revistaaral.com","revistaaral.com","$5000","","Business And Industrial","Outside Top 1m","Outside Top 1m","Outside Top 1m","Outside Top 1m","ph:+34-912-972000;+34-902-999829","info@revistaaral.com","https://twitter.com/revistaaral","https://facebook.com/revistaaral","https://linkedin.com/company/revista-aral","","","","","","","","","Madrid","M","28022","ES","2014-01-11","2018-07-27","2014-01-11","2018-07-27","-","Spain"
"revistahosteleria.com","revistahosteleria.com","$5000","","Travel","Outside Top 1m","Outside Top 1m","Outside Top 1m","Outside Top 1m","ph:","info@revistahosteleria.com","https://twitter.com/hosteleria_","https://facebook.com/revistahosteleria","https://linkedin.com/company/revista-hosteler�a","","","","","","","","","","","","","2015-11-11","2018-07-27","2015-07-20","2018-08-03","-","Non-EU"
"revistapq.com","revistapq.com","$5000","","Art And Entertainment","Outside Top 1m","Outside Top 1m","Outside Top 1m","Outside Top 1m","ph:","info@revistapq.com","https://twitter.com/revista_pq","","https://linkedin.com/company/revista-pq","","","","","","","","","","","","","2015-11-04","2018-07-27","2015-10-28","2018-08-03","-","Non-EU"
"rockwennys.gq","rockwennys.gq","$250","","","Outside Top 1m","Outside Top 1m","Outside Top 1m","Outside Top 1m","","","","","","","","","","","","","","","","","","2018-06-02","2018-08-03","2018-05-31","2018-08-03","-","Non-EU"
"rosenborg.info","rosenborg.info","$50","","","Outside Top 1m","Outside Top 1m","Outside Top 1m","Outside Top 1m","","","","","","","","","","","","","","","","","","2013-11-12","2018-08-24","2013-02-28","2018-08-24","-","Non-EU"
"730.no","730.no","$250","","Technology And Computing","Outside Top 1m","173229","745033","Outside Top 1m","ph:","janne@730.no;gisle@730.no;post@730.no;sindre@730.no","","","","","","","","","","","","","","","","2013-10-24","2018-08-20","2011-01-03","2018-08-20","-","Non-EU"
"femelle.no","femelle.no","$100","","Technology And Computing","Outside Top 1m","Outside Top 1m","511526","Outside Top 1m","ph:","kontakt@femelle.no","","https://facebook.com/femelleno","","","https://pinterest.com/fashiondelirium","","https://instagram.com/femelleno","","","","","New York City","NY","10025","","2013-10-24","2018-08-20","2011-12-04","2018-08-20","-","Non-EU"
"finansiering123.no","finansiering123.no","$10","","","Outside Top 1m","Outside Top 1m","Outside Top 1m","Outside Top 1m","","","","","","","","","","","","","","","","","","2016-03-20","2018-08-17","2016-03-20","2018-08-17","-","Non-EU"
"folhadelondrina.com.br","folhadelondrina.com.br","$5000","","Technology And Computing","Outside Top 1m","105569","312598","248016","ph:","webmaster.folhaweb@folhadelondrina.com.br;redacao.folhaweb@folhadelondrina.com.br","https://twitter.com/folhaweb","https://facebook.com/folhaweb","","https://google.com/+folhadelondrina","","","https://instagram.com/folhadelondrina","","","","","","","","","2013-10-24","2018-07-28","2012-01-06","2018-08-20","-","Non-EU"
"forward.com","forward.com","$10000","The Forward Association Inc","Art And Entertainment","4604","36627","3917","27061","ph:+1-212-453-9454;+1-646-452-5637;+1-212-453-9413","amzallag@forward.com;coleman@forward.com;website@forward.com;cohleresses@forward.com;langer@forward.com;norich@forward.com;rachel@forward.com;banner@forward.com;classifieddesk@forward.com;compliance@forward.com;subscriptions@forward.com;wallach@forward.com;batya@forward.com;chambard@forward.com;kuperman@forward.com;sarid@forward.com;greenberg@forward.com;shapiro@forward.com;caplan@forward.com;chernikoff@forward.com;pink@forward.com","https://twitter.com/jdforward","https://facebook.com/jewishdailyforward","","","","","https://instagram.com/jdforward","","","","David Kelsey - Support - kelsey@forward.com; Kim Rosenberg - Director - rosenberg@forward.com; David Coleman - Director - coleman@forward.com; Oren Segal - Director - segal@forward.com; Merrill Zack - Director - zack@forward.com; Deb Greenberg - Manager - greenberg@forward.com; Jon Banner - President - banner@forward.com","New York","NY","","","2014-06-04","2018-08-01","2011-01-03","2018-08-20","-","Non-EU"
"frageolas.gq","frageolas.gq","$0","","","Outside Top 1m","Outside Top 1m","Outside Top 1m","Outside Top 1m","","","","","","","","","","","","","","","","","","2018-08-03","2018-08-03","2018-05-02","2018-08-03","-","Non-EU"
"gc-arabic.com","gc-arabic.com","$50","Al Hilal Group","","Outside Top 1m","Outside Top 1m","Outside Top 1m","Outside Top 1m","ph:","","","","","","","","","","","","","","","","","2017-10-23","2018-08-03","2017-10-23","2018-08-03","-","Non-EU"
"gcarabic.com","gcarabic.com","$50","Al Hilal Group","","Outside Top 1m","Outside Top 1m","Outside Top 1m","Outside Top 1m","ph:","alghata@hcc.com.bh","","","","","","","","","","","Ali Hassan - Other - noemail","Manama","","10865","BH","2014-12-08","2018-08-03","2013-01-31","2018-08-03","-","Non-EU"
"gdnmarketplace.com","gdnmarketplace.com","$100","","Business And Industrial","Outside Top 1m","604630","Outside Top 1m","Outside Top 1m","ph:","","","","","","","","","","","","","","","","","2018-02-15","2018-08-07","2017-10-16","2018-08-07","-","Non-EU"
"gdnonline.com","gdnonline.com","$50","Al Hilal Group","Sports","Outside Top 1m","116844","70914","211963","ph:","webmaster@gdnonline.com;advertising@gdnonline.com;info@gdnonline.com","https://twitter.com/gdnonline","","","","","","https://instagram.com/gdnonline","","","","","","","","","2015-06-20","2018-08-21","2015-04-06","2018-08-21","-","Non-EU"
"gratuit-videos-sex.com","gratuit-videos-sex.com","$50","","Style And Fashion","Outside Top 1m","Outside Top 1m","Outside Top 1m","Outside Top 1m","ph:","","","","","","","","","","","","","","","","","2014-01-11","2018-08-03","2014-01-11","2018-08-03","-","Non-EU"
"guiasgtp.com","guiasgtp.com","$5000","","","Outside Top 1m","Outside Top 1m","Outside Top 1m","Outside Top 1m","ph:","","","","","","","","","","","","","","","","","2013-11-14","2018-08-06","2011-12-04","2018-08-06","-","Non-EU"
"gulfconnexions.com","gulfconnexions.com","$250","Connexions Group","Business And Industrial","Outside Top 1m","Outside Top 1m","Outside Top 1m","Outside Top 1m","ph:","jobs@gulfconnexions.com;china@gulfconnexions.com","https://twitter.com/gulfconnexions7","https://facebook.com/gulfconnexions","","","","","","","","","N/A - Director - n/a@gulfconnexions.com; N/A - Csuite - n/a@gulfconnexions.com","Teddington","LONDON","TW11","GB","2016-10-26","2018-08-07","2011-11-06","2018-08-07","-","United Kingdom"
"gulfconstructionmagazine.com","gulfconstructionmagazine.com","$50","Al Hilal Group","Art And Entertainment","Outside Top 1m","Outside Top 1m","Outside Top 1m","Outside Top 1m","ph:+44-208-9433630","","","","","","","","","","","https://youtube.com/user/gulfconstruction","","Teddington","LONDON","TW11","","2015-01-27","2018-08-03","2015-01-27","2018-08-03","-","Non-EU"
"gulfconstructiononline.com","gulfconstructiononline.com","$100","Al Hilal Group","Business And Industrial","Outside Top 1m","Outside Top 1m","Outside Top 1m","Outside Top 1m","ph:","editor@gulfconstructiononline.com","","","","","","","","","","https://youtube.com/user/gulfconstruction","","Teddington","LONDON","TW11","GB","2013-11-12","2018-08-21","2013-02-28","2018-08-21","-","United Kingdom"
"gulfconstructionworldwide.com","gulfconstructionworldwide.com","$100","Al Hilal Group","Business And Industrial","Outside Top 1m","Outside Top 1m","Outside Top 1m","Outside Top 1m","ph:","","","","","","","","","","","https://youtube.com/user/gulfconstruction","","Teddington","LONDON","TW11","GB","2013-10-24","2018-08-03","2011-04-03","2018-08-03","-","United Kingdom"
"gulfindustryonline.com","gulfindustryonline.com","$100","Al Hilal Group","Business And Industrial","Outside Top 1m","Outside Top 1m","Outside Top 1m","Outside Top 1m","ph:","editor@gulfindustryonline.com","","","","","","","","","","https://youtube.com/user/gulfindustryonline","","Teddington","LONDON","TW11","GB","2013-11-12","2018-08-05","2013-02-28","2018-08-21","-","United Kingdom"
"gulfindustryworldwide.com","gulfindustryworldwide.com","$100","Al Hilal Group","Business And Industrial","Outside Top 1m","Outside Top 1m","Outside Top 1m","Outside Top 1m","ph:","","","","","","","","","","","https://youtube.com/user/gulfindustryonline","","Teddington","LONDON","TW11","GB","2013-11-12","2018-08-03","2013-02-28","2018-08-03","-","United Kingdom"
"gulfweekly.com","gulfweekly.com","$50","","","Outside Top 1m","Outside Top 1m","Outside Top 1m","Outside Top 1m","ph:+44-208-9433630","editor@gulfweekly.com","https://twitter.com/gulfweekly","https://facebook.com/gulfweeklyonline","","","","","https://instagram.com/gulfweekly","","","","N/A - Sales - noemail; N/A - Sales - noemail","Teddington","LONDON","TW11","GB","2013-11-12","2018-08-07","2012-05-31","2018-08-07","-","United Kingdom"
"pcbeach.org","pcbeach.org","$250","","","Outside Top 1m","Outside Top 1m","291340","Outside Top 1m","ph:+1-850-235-2301","chamber@pcbeach.org;info@pcbeach.org;feedback@pcbeach.org","","","","","","","","","","","","Panama City Beach","FL","32407","US","2013-10-24","2018-08-26","2011-01-03","2018-08-26","-","Non-EU"
"pcbeachjobs.com","pcbeachjobs.com","$250","","","Outside Top 1m","Outside Top 1m","873375","Outside Top 1m","ph:+1-850-235-2301","","","","","","","","","","","","","Panama City Beach","FL","32407","","2017-11-25","2018-08-03","2017-11-25","2018-08-03","-","Non-EU"
"pengerik.com","pengerik.com","$5000","","Technology And Computing","Outside Top 1m","Outside Top 1m","Outside Top 1m","Outside Top 1m","ph:","","","","","","","","","","","","","","","","","2013-11-07","2018-08-23","2013-02-28","2018-08-23","-","Non-EU"
"pixelcorps.tv","pixelcorps.tv","$50","","Technology And Computing","Outside Top 1m","Outside Top 1m","935158","Outside Top 1m","ph:","","","","","","","","","","","","","","","","","2013-11-12","2018-08-23","2011-12-04","2018-08-23","-","Non-EU"
"posventa.com","posventa.com","$5000","","Automotive And Vehicles","Outside Top 1m","Outside Top 1m","Outside Top 1m","Outside Top 1m","ph:+34-912-972000;+34-902-999829","info@posventa.com","https://twitter.com/posventaauto","https://facebook.com/posventadeautomocion","https://linkedin.com/company/posventa-de-automoci�n","","","","","","","","","Madrid","M","28022","ES","2014-05-14","2018-07-27","2014-02-23","2018-07-27","-","Spain"
"proboat.com","proboat.com","$250","","Art And Entertainment","189804","Outside Top 1m","373796","Outside Top 1m","ph:+1-207-632-7369;+1-802-879-8324;+1-207-359-4651;+1-937-890-0221","","https://twitter.com/proboat","https://facebook.com/proboatmagazine","","","","","","","","https://youtube.com/user/proboatmagazine","Kate Holden - Marketing - kate@proboat.com; Tina Sanderson - Sales - tina@proboat.com; Todd Richardson - Director - todd@proboat.com; Anne Dunbar - Director - anne@proboat.com","Brooklin","ME","04616","US","2013-10-24","2018-08-22","2011-01-03","2018-08-26","-","Non-EU"
"projectorreviews.com","projectorreviews.com","$5000","","Technology And Computing","879263","280723","127123","Outside Top 1m","ph:+1-513-659-8374","reviewer@projectorreviews.com;webmaster@projectorreviews.com","https://twitter.com/projectorreview","https://facebook.com/projectorreviews","","","","","","","","https://youtube.com/user/projectorreviews","Ron Jones - Other - noemail","San Clemente","CA","92672","US","2013-10-24","2018-08-20","2011-01-03","2018-08-20","-","Non-EU"
"projecttimes.com","projecttimes.com","$100","","Business And Industrial","842861","264240","322746","312275","ph:+1-866-782-8231","","https://twitter.com/projecttimes","https://facebook.com/projecttimes","","","","","","","","","Kathy Booker - Director - noemail","Portland","ME","04112","US","2013-10-24","2018-08-20","2011-01-03","2018-08-20","-","Non-EU"
"waeldheims.cf","waeldheims.cf","$0","","","Outside Top 1m","Outside Top 1m","Outside Top 1m","Outside Top 1m","","","","","","","","","","","","","","","","","","2018-06-19","2018-08-03","2018-05-02","2018-08-03","-","Non-EU"
"whoopee.no","whoopee.no","$10","","Shopping","Outside Top 1m","Outside Top 1m","Outside Top 1m","Outside Top 1m","ph:","","","","","","","","","","","","","","","","","2016-03-21","2018-08-03","2016-03-20","2018-08-03","-","Non-EU"
"wifelover.bz","wifelover.bz","$0","tarrob web services inc","Adult","Outside Top 1m","Outside Top 1m","Outside Top 1m","Outside Top 1m","ph:","","","","","","","","","","","","","","","","","2013-11-12","2018-08-03","2013-02-28","2018-08-03","-","Non-EU"
"wifelover.cc","wifelover.cc","$0","tarrob web services inc","Adult","Outside Top 1m","Outside Top 1m","Outside Top 1m","Outside Top 1m","ph:","","","","","","","","","","","","","","","","","2013-11-12","2018-08-03","2013-02-28","2018-08-03","-","Non-EU"
"wifelover.tv","wifelover.tv","$0","tarrob web services inc","Adult","Outside Top 1m","Outside Top 1m","Outside Top 1m","Outside Top 1m","ph:","","","","","","","","","","","","","","","","","2013-11-12","2018-08-03","2013-02-28","2018-08-03","-","Non-EU"
"wifelover.us","wifelover.us","$0","tarrob web services inc","Adult","Outside Top 1m","Outside Top 1m","Outside Top 1m","Outside Top 1m","ph:","","","","","","","","","","","","","","","","","2013-11-12","2018-08-03","2011-10-02","2018-08-03","-","Non-EU"
"wifelovergirls.com","wifelovergirls.com","$0","tarrob web services inc","Adult","Outside Top 1m","Outside Top 1m","Outside Top 1m","Outside Top 1m","ph:","","","","","","","","","","","","","","","","","2013-11-12","2018-08-03","2011-01-03","2018-08-03","-","Non-EU"
"wifeloverguys.com","wifeloverguys.com","$0","tarrob web services inc","Adult","Outside Top 1m","Outside Top 1m","Outside Top 1m","Outside Top 1m","ph:","","","","","","","","","","","","","","","","","2013-11-12","2018-08-03","2011-01-03","2018-08-03","-","Non-EU"
"wifeloverposter.com","wifeloverposter.com","$0","tarrob web services inc","Adult","Outside Top 1m","Outside Top 1m","Outside Top 1m","Outside Top 1m","ph:","","","","","","","","","","","","","","","","","2013-11-12","2018-08-03","2013-02-28","2018-08-03","-","Non-EU"
"wifelovers.bz","wifelovers.bz","$0","tarrob web services inc","Adult","Outside Top 1m","Outside Top 1m","Outside Top 1m","Outside Top 1m","ph:","","","","","","","","","","","","","","","","","2013-11-12","2018-08-03","2013-02-28","2018-08-03","-","Non-EU"
"wifelovers.cc","wifelovers.cc","$0","tarrob web services inc","Adult","Outside Top 1m","Outside Top 1m","Outside Top 1m","Outside Top 1m","ph:","","","","","","","","","","","","","","","","","2013-11-12","2018-08-03","2011-01-03","2018-08-03","-","Non-EU"
"wifelovers.com","wifelovers.com","$0","tarrob web services inc","Adult","Outside Top 1m","100614","Outside Top 1m","191649","ph:","","","","","","","","","","","","","","","","","2018-02-26","2018-08-20","2011-11-06","2018-08-20","-","Non-EU"
"wifelovers.com.mx","wifelovers.com.mx","$0","tarrob web services inc","Adult","Outside Top 1m","Outside Top 1m","Outside Top 1m","Outside Top 1m","ph:","","","","","","","","","","","","","","","","","2013-10-24","2018-08-03","2011-01-03","2018-08-03","-","Non-EU"
"wifelovers.tv","wifelovers.tv","$0","tarrob web services inc","Adult","Outside Top 1m","Outside Top 1m","Outside Top 1m","Outside Top 1m","ph:","","","","","","","","","","","","","","","","","2013-11-12","2018-08-03","2013-02-28","2018-08-03","-","Non-EU"
"wifelovers2.com","wifelovers2.com","$0","tarrob web services inc","Adult","Outside Top 1m","Outside Top 1m","Outside Top 1m","Outside Top 1m","ph:","","","","","","","","","","","","","","","","","2013-11-12","2018-08-03","2011-01-03","2018-08-03","-","Non-EU"
"wifeloversmovies.com","wifeloversmovies.com","$0","tarrob web services inc","","Outside Top 1m","Outside Top 1m","Outside Top 1m","Outside Top 1m","ph:","","","","","","","","","","","","","","","","","2013-11-12","2018-08-03","2013-02-28","2018-08-03","-","Non-EU"
"wifeloverspicpost.com","wifeloverspicpost.com","$0","tarrob web services inc","Adult","Outside Top 1m","Outside Top 1m","Outside Top 1m","Outside Top 1m","ph:","","","","","","","","","","","","","","","","","2013-11-12","2018-08-03","2013-02-28","2018-08-03","-","Non-EU"
"wifelovertrade.com","wifelovertrade.com","$0","tarrob web services inc","Adult","Outside Top 1m","Outside Top 1m","Outside Top 1m","Outside Top 1m","ph:","","","","","","","","","","","","","","","","","2013-11-12","2018-08-03","2013-02-28","2018-08-03","-","Non-EU"
"wifeposter.net","wifeposter.net","$0","","Adult","Outside Top 1m","Outside Top 1m","Outside Top 1m","Outside Top 1m","ph:","","","","","","","","","","","","","","","","","2013-10-24","2018-08-03","2011-01-03","2018-08-03","-","Non-EU"
"wifesex4u.com","wifesex4u.com","$0","","Adult","Outside Top 1m","Outside Top 1m","Outside Top 1m","Outside Top 1m","ph:","","","","","","","","","","","","","","","","","2013-11-12","2018-08-03","2013-02-28","2018-08-03","-","Non-EU"
"woodenboat.com","woodenboat.com","$500","","Art And Entertainment","33016","99477","55513","154065","ph:+1-603-569-4554;+1-207-359-8920","woodenboat@woodenboat.com;matt@woodenboat.com;wblibrary@woodenboat.com;wbstore@woodenboat.com;school@woodenboat.com","https://twitter.com/woodenboatmag","https://facebook.com/woodenboatpub","","","","","https://instagram.com/woodenboatmagazine","","","","","Wolfeboro Falls","NH","03896","US","2013-10-24","2018-08-20","2011-01-03","2018-08-20","-","Non-EU"
"ymislbegts.ga","ymislbegts.ga","$100","","","Outside Top 1m","Outside Top 1m","Outside Top 1m","Outside Top 1m","","","","","","","","","","","","","","","","","","2018-07-02","2018-08-03","2018-07-02","2018-08-03","-","Non-EU"
"yogaportalen.no","yogaportalen.no","$100","","","Outside Top 1m","Outside Top 1m","Outside Top 1m","Outside Top 1m","ph:","","","https://facebook.com/yogaportalen","","","","","https://instagram.com/yogaportalen.no","","","","","","","","","2014-07-17","2018-08-26","2013-03-19","2018-08-26","-","Non-EU"
"aaa.com","aaa.com","$10000","AAA Southern New England","Travel","Outside Top 1m","5081","1861","7526","ph:+1-800-222-4357;+1-800-562-2582;+1-844-446-3636;+1-855-669-6046;+1-866-636-2377;+1-833-345-5626;+1-855-332-2447;+1-855-292-9306;+1-302-674-8020;+1-610-337-6800;+1-800-444-8091;+1-513-559-1733;+1-800-763-9900;+1-717-657-2244;+1-208-734-6441;+1-503-489-2842","","https://twitter.com/aaa_washington","https://facebook.com/aaawashington","https://linkedin.com/company/aaaoklahomasouthdakota","","","","https://instagram.com/aaaoregonidaho","","","","Robert Elliott - Board - noemail; Peter Calihan - Board - noemail; Tom Hayes - Board - noemail; Kenneth Nilsson - Board - noemail; Bashir Wada - Board - noemail; Gilbert Chester - Board - noemail; Maria Hernandez - Board - noemail; Donald Smith - Board - noemail; Joseph Warren - Board - noemail; Margie Emmermann - Board - noemail; Robert Machen - Board - noemail; Daniel Whitehurst - Board - noemail; Paula Collins - Board - noemail; Shirley Ward - Board - noemail; Tim Condon - President - noemail; Mike Hetke - President - noemail; Karen Bianchini - President - noemail; David Polansky - President - noemail; Bill Sutherland - President - noemail; Bill Wood - President - noemail; Diego Pittelkow - President - noemail; Scott Denman - President - noemail; Ramon Millan - President - noemail; Scott Parker - President - noemail; Clay Creasey - Csuite - noemail","Bellevue","WA","98006","","2017-12-18","2018-08-05","2017-03-03","2018-08-26","-","Non-EU"
"aalbc.com","aalbc.com","$100","Aalbc.Com Llc","Art And Entertainment","Outside Top 1m","809515","67793","307394","ph:","troy@aalbc.com;earl@aalbc.com;goldiecd@aalbc.com;kola@aalbc.com;poets@aalbc.com;booksites@aalbc.com;howami@aalbc.com;gaby@aalbc.com;kam@aalbc.com","https://twitter.com/aalbc","https://facebook.com/aalbc","","","https://pinterest.com/aalbc","","https://instagram.com/aalbc","","https://vimeo.com/aalbc","","Troy Johnson - Founder - troy@aalbc.com","","","","","2013-11-07","2018-08-07","2011-01-03","2018-08-10","-","Non-EU"
"abc-bahrain.com","abc-bahrain.com","$50","Al Hilal Group","Business And Industrial","Outside Top 1m","602252","Outside Top 1m","Outside Top 1m","ph:","","","","","","","","","","","","","Calvary","GA","31729","","2013-11-12","2018-08-20","2013-02-28","2018-08-20","-","Non-EU"
"abc-kuwait.com","abc-kuwait.com","$50","Al Hilal Group","Business And Industrial","Outside Top 1m","Outside Top 1m","Outside Top 1m","Outside Top 1m","ph:","","","","","","","","","","","","","Calvary","GA","31729","","2015-12-10","2018-08-07","2013-02-28","2018-08-10","-","Non-EU"
"abc-oman.com","abc-oman.com","$50","Al Hilal Group","Business And Industrial","Outside Top 1m","Outside Top 1m","Outside Top 1m","Outside Top 1m","ph:","","","","","","","","","","","","","Calvary","GA","31729","","2015-12-10","2018-08-03","2013-02-28","2018-08-03","-","Non-EU"
"abc-qatar.com","abc-qatar.com","$50","Al Hilal Group","Business And Industrial","Outside Top 1m","Outside Top 1m","Outside Top 1m","Outside Top 1m","ph:","","","","","","","","","","","","","Calvary","GA","31729","","2015-12-10","2018-08-10","2013-02-28","2018-08-10","-","Non-EU"
"abc-saudiarabia.com","abc-saudiarabia.com","$50","Al Hilal Group","Business And Industrial","Outside Top 1m","757319","Outside Top 1m","Outside Top 1m","ph:","","","","","","","","","","","","","","","","","2015-11-27","2018-08-20","2013-02-28","2018-08-20","-","Non-EU"
"abc-uae.net","abc-uae.net","$50","Al Hilal Group","Business And Industrial","Outside Top 1m","Outside Top 1m","Outside Top 1m","Outside Top 1m","ph:","","","","","","","","","","","","","Calvary","GA","31729","","2015-11-27","2018-08-03","2014-01-11","2018-08-10","-","Non-EU"
"abccommunities.com","abccommunities.com","$50","","","Outside Top 1m","Outside Top 1m","Outside Top 1m","Outside Top 1m","","","","","","","","","","","","","","","","","","2018-06-02","2018-08-07","2018-05-31","2018-08-07","-","Non-EU"
"abcmarketplace.net","abcmarketplace.net","$50","","Business And Industrial","Outside Top 1m","Outside Top 1m","Outside Top 1m","Outside Top 1m","ph:","privacy@abcmarketplace.net","","","","","","","","","","","","","","","","2018-01-10","2018-08-03","2017-10-16","2018-08-03","-","Non-EU"
"additudemag.com","additudemag.com","$5000","New Hope Media LLC","Education","21902","21561","22352","27442","ph:+1-646-366-0830","susan@additudemag.com;wayne@additudemag.com;webmaster@additudemag.com;letters@additudemag.com;submissions@additudemag.com;advertise@additudemag.com;productreviews@additudemag.com;nnect@additudemag.com;wendy@additudemag.com;linking@additudemag.com;directory@additudemag.com;listing@additudemag.com;customerservice@additudemag.com","https://twitter.com/additudemag","https://facebook.com/additudemag","","","https://pinterest.com/additudemag","","https://instagram.com/additudemag","","","","","New York City","NY","10018","US","2018-02-20","2018-08-20","2011-01-03","2018-08-20","-","Non-EU"
"adoptivefamilies.com","adoptivefamilies.com","$500","Adoptive Families","","80749","557155","133279","Outside Top 1m","ph:+1-646-366-0830;+1-800-779-8328;+1-800-550-0324","letters@adoptivefamilies.com;susan@adoptivefamilies.com;ity@adoptivefamilies.com;advertising@adoptivefamilies.com;etters@adoptivefamilies.com;unity@adoptivefamilies.com;submissions@adoptivefamilies.com;digital@adoptivefamilies.com;abbey@adoptivefamilies.com;eve@adoptivefamilies.com","https://twitter.com/adoptioncircle","https://facebook.com/adoptivefamilies","","","https://pinterest.com/adoptioncircle","","","","","","Jackie Palmer - Director - jackie@adoptivefamilies.com; Janis Fry - Manager - janis@adoptivefamilies.com","New York City","NY","10018","US","2013-10-24","2018-08-20","2011-01-03","2018-08-20","-","Non-EU"
"adoptivefamiliescircle.com","adoptivefamiliescircle.com","$250","","","38899","Outside Top 1m","Outside Top 1m","Outside Top 1m","ph:+1-646-366-0830","","https://twitter.com/adoptioncircle","https://facebook.com/adoptivefamilies","","","https://pinterest.com/adoptioncircle","","","","","","Cleveland Adoption - Support - noemail","New York City","NY","10018","US","2013-10-24","2018-08-20","2011-04-03","2018-08-20","-","Non-EU"
"adultvideo4u.com","adultvideo4u.com","$0","","Adult","Outside Top 1m","Outside Top 1m","Outside Top 1m","Outside Top 1m","ph:","","","","","","","","","","","","","","","","","2013-11-12","2018-08-03","2013-02-28","2018-08-03","-","Non-EU"
"adwhords.gq","adwhords.gq","$250","","","Outside Top 1m","Outside Top 1m","Outside Top 1m","Outside Top 1m","","","","","","","","","","","","","","","","","","2018-07-02","2018-08-10","2018-05-02","2018-08-10","-","Non-EU"
"aidaheidelberg.co.za","aidaheidelberg.co.za/*","$50","","Real Estate","Outside Top 1m","Outside Top 1m","Outside Top 1m","Outside Top 1m","ph:+61-73-1246097","","","","","","","","","","","","","","","","","2017-07-06","2018-08-11","2012-01-06","2018-08-11","-","Non-EU"
"amateurgirl4u.com","amateurgirl4u.com","$0","","Adult","Outside Top 1m","Outside Top 1m","Outside Top 1m","Outside Top 1m","ph:","","","","","","","","","","","","","","","","","2013-11-12","2018-08-03","2011-11-06","2018-08-03","-","Non-EU"
"amateurguy4u.com","amateurguy4u.com","$0","","Adult","Outside Top 1m","Outside Top 1m","Outside Top 1m","Outside Top 1m","ph:","","","","","","","","","","","","","","","","","2013-11-12","2018-08-03","2011-04-03","2018-08-03","-","Non-EU"
"amateursex4u.net","amateursex4u.net","$0","","Adult","Outside Top 1m","Outside Top 1m","Outside Top 1m","Outside Top 1m","ph:","","","","","","","","","","","","","","","","","2013-11-12","2018-08-03","2013-02-28","2018-08-03","-","Non-EU"
"americanshipper.com","americanshipper.com","$1000","Howard Publications Inc","Business And Industrial","233847","Outside Top 1m","109259","143261","ph:+1-904-791-8836;+1-800-282-1376;+1-800-874-6422","","https://twitter.com/americanshipper","https://facebook.com/americanshipper","https://linkedin.com/company/american-shipper","https://google.com/+americanshipper","","","","","","","Jason Lloyd - Director - noemail; Brian Murray - Board - noemail; Fred Smith - President - noemail; Robert Nathan - Csuite - noemail; Dhruv Saxena - Csuite - noemail","Rogers","OH","44455","US","2013-10-24","2018-08-20","2011-01-03","2018-08-20","-","Non-EU"
"amour-musulmane.com","amour-musulmane.com","$500","","","Outside Top 1m","Outside Top 1m","Outside Top 1m","Outside Top 1m","","","","","","","","","","","","","","","","","","2013-11-12","2018-08-03","2013-09-15","2018-08-03","-","Non-EU"
"animatedgif.net","animatedgif.net","$500","AnimatedGIF.net and Travlang Online Inc","Art And Entertainment","27404","Outside Top 1m","235917","Outside Top 1m","ph:","forsale@animatedgif.net;submissions@animatedgif.net;webmaster@animatedgif.net","","","","","","","","","","","","","","","","2013-10-24","2018-08-06","2011-01-03","2018-08-20","-","Non-EU"
"arabianbusinesscommunity.com","arabianbusinesscommunity.com","$50","Al Hilal Group","Business And Industrial","Outside Top 1m","Outside Top 1m","Outside Top 1m","Outside Top 1m","ph:","","","","","","","","","","","","","Teddington","Greater London","TW11","GB","2014-10-15","2018-08-03","2014-08-31","2018-08-03","-","United Kingdom"
"arabianknightonline.com","arabianknightonline.com","$100","Al Hilal Group","","Outside Top 1m","Outside Top 1m","Outside Top 1m","Outside Top 1m","ph:+1-208-943-3701","","","","","","","","","","","","Prince Sheikh - Board - noemail","","","","","2014-12-08","2018-08-21","2013-02-28","2018-08-21","-","Non-EU"
"asianbusinesscommunity.com","asianbusinesscommunity.com","$50","Al Hilal Group","Business And Industrial","Outside Top 1m","Outside Top 1m","Outside Top 1m","Outside Top 1m","ph:","","","","","","","","","","","","","","","","","2016-06-29","2018-08-03","2015-04-20","2018-08-03","-","Non-EU"
"askmurdoch.co.uk","askmurdoch.co.uk","$50","","","Outside Top 1m","Outside Top 1m","Outside Top 1m","Outside Top 1m","","","","","","","","","","","","","","","","","","2013-11-12","2018-08-03","2013-02-28","2018-08-03","-","United Kingdom"
"easyhomes.co.za","easyhomes.co.za","$0","","Art And Entertainment","Outside Top 1m","Outside Top 1m","Outside Top 1m","Outside Top 1m","ph:","","","","","","","","","","","","","","","","","2015-02-18","2018-08-03","2012-02-04","2018-08-03","-","Non-EU"
"elsiglo.com.pa","elsiglo.com.pa","$500","","Art And Entertainment","Outside Top 1m","12659","129479","245609","ph:","","https://twitter.com/elsiglodigital","https://facebook.com/elsiglodigital","","","","","","","","https://youtube.com/user/elsiglodigital","","","","","","2017-01-03","2018-08-26","2017-01-03","2018-08-26","-","Non-EU"
"manutencionyalmacenaje.com","manutencionyalmacenaje.com","$5000","","Business And Industrial","Outside Top 1m","Outside Top 1m","Outside Top 1m","Outside Top 1m","ph:+34-912-972000;+34-902-999829","info@manutencionyalmacenaje.com","","https://facebook.com/manutencionyalmacenaje","https://linkedin.com/company/manutenci�n-","","","","","","","","N/A - Director - noemail","Madrid","M","28022","ES","2014-01-11","2018-08-22","2014-01-11","2018-08-22","-","Spain"
"marteenhs.cf","marteenhs.cf","$100","","","Outside Top 1m","Outside Top 1m","Outside Top 1m","Outside Top 1m","","","","","","","","","","","","","","","","","","2018-06-19","2018-08-03","2018-05-31","2018-08-03","-","Non-EU"
"matureswingers4u.com","matureswingers4u.com","$0","","Adult","Outside Top 1m","Outside Top 1m","Outside Top 1m","Outside Top 1m","ph:+1-213-761-7061","","","","","","","","","","","","","Chicago","IL","60611","","2013-11-12","2018-08-03","2012-02-04","2018-08-03","-","Non-EU"
"matureswinging4u.com","matureswinging4u.com","$0","","Adult","Outside Top 1m","Outside Top 1m","Outside Top 1m","Outside Top 1m","ph:+1-213-761-7061","","","","","","","","","","","","","Chicago","IL","60611","","2013-11-12","2018-08-03","2013-09-15","2018-08-03","-","Non-EU"
"memedsahin.com","memedsahin.com","$5000","","Technology And Computing","Outside Top 1m","Outside Top 1m","Outside Top 1m","Outside Top 1m","ph:","","","","","","","","","","","","","","","","","2017-08-08","2018-08-08","2013-02-28","2018-08-08","-","Non-EU"
"mercedes-190.co.uk","mercedes-190.co.uk","$500","","Technology And Computing","Outside Top 1m","Outside Top 1m","Outside Top 1m","Outside Top 1m","ph:","","","","","","","","","","","","","","","","","2013-11-12","2018-08-08","2012-02-04","2018-08-08","-","United Kingdom"
"metalesymetalurgia.com","metalesymetalurgia.com","$5000","","Business And Industrial","Outside Top 1m","Outside Top 1m","Outside Top 1m","Outside Top 1m","ph:+34-913-591712;+34-902-999829","info@metalesymetalurgia.com","https://twitter.com/metalesymetalur","","","","","","","","","","","Madrid","M","28022","ES","2014-01-11","2018-08-03","2014-01-11","2018-08-03","-","Spain"
"mia.com.pa","mia.com.pa","$50","","Business And Industrial","Outside Top 1m","Outside Top 1m","Outside Top 1m","Outside Top 1m","ph:","","https://twitter.com/mialarevista","https://facebook.com/mia-la-revista-121327864610890","","","","","https://instagram.com/mialarevista","","","","","","","","","2016-06-30","2018-08-03","2013-09-05","2018-08-03","-","Non-EU"
"midcapdirectory.com","midcapdirectory.com","$500","IntegrityMessageBoards.com LLC","Business And Industrial","Outside Top 1m","Outside Top 1m","Outside Top 1m","Outside Top 1m","ph:+1-404-584-0108;+1-314-431-9442;+1-866-333-9244","","","","","","","","","","","","","Atlanta","GA","30312","US","2013-11-12","2018-08-22","2013-02-28","2018-08-22","-","Non-EU"
"morningannouncements.com","morningannouncements.com","$250","","Education","Outside Top 1m","Outside Top 1m","Outside Top 1m","Outside Top 1m","ph:","jferry@morningannouncements.com;jbrown@morningannouncements.com;jleonard@morningannouncements.com;kcavallaro@morningannouncements.com","","","","","","","","","","","Ken Cavallaro - Manager - noemail","Boston","MA","02109","","2016-11-22","2018-08-22","2016-11-15","2018-08-22","-","Non-EU"
"moskovbas.ga","moskovbas.ga","$250","","","Outside Top 1m","Outside Top 1m","Outside Top 1m","Outside Top 1m","","","","","","","","","","","","","","","","","","2018-07-02","2018-08-03","2018-07-02","2018-08-03","-","Non-EU"
"motebloggerne.no","motebloggerne.no","$0","","","Outside Top 1m","Outside Top 1m","Outside Top 1m","Outside Top 1m","ph:","post@motebloggerne.no","","","","","","","","","","","","","","","","2014-01-11","2018-08-03","2014-01-11","2018-08-03","-","Non-EU"
"motorcycledaily.com","motorcycledaily.com","$500","Enhance Partners LLC","Automotive And Vehicles","19102","210726","63769","157792","ph:","editor@motorcycledaily.com","","","","","","","https://instagram.com/motorcycledaily","","","","","","","","","2013-10-24","2018-08-20","2011-01-03","2018-08-20","-","Non-EU"
"movvilidads.tk","movvilidads.tk","$500","","","Outside Top 1m","Outside Top 1m","Outside Top 1m","Outside Top 1m","","","","","","","","","","","","","","","","","","2018-05-02","2018-08-22","2018-05-02","2018-08-22","-","Non-EU"
"mundo-electronico.com","mundo-electronico.com","$5000","","Technology And Computing","Outside Top 1m","Outside Top 1m","Outside Top 1m","Outside Top 1m","ph:+34-934-098980;+34-902-999829","info@mundo-electronico.com","https://twitter.com/mundoelec","","","","","","","","","","","Madrid","M","28022","ES","2014-01-11","2018-08-22","2014-01-11","2018-08-22","-","Spain"
"mwerks.com","mwerks.com","$5000","Vortex Media Group","Automotive And Vehicles","Outside Top 1m","Outside Top 1m","271462","Outside Top 1m","ph:","info@mwerks.com","","","","","","","","","","","","","","","","2013-11-12","2018-08-20","2011-01-03","2018-08-21","-","Non-EU"
"mynudepage.com","mynudepage.com","$0","Mashable Inc","Adult","Outside Top 1m","Outside Top 1m","Outside Top 1m","Outside Top 1m","ph:","","","","","","","","","","","","","","","","","2013-11-12","2018-08-03","2013-02-28","2018-08-03","-","Non-EU"
